start=new Date('2023-03-22T00:00:00.000Z').valueOf();
sats=[{"ECCENTRICITY":"0.00012900","MEAN_MOTION_DDOT":"0.0000000000000","ELEMENT_SET_NO":"999","OBJECT_TYPE":"PAYLOAD","CENTER_NAME":"EARTH","MEAN_MOTION":"15.08833207","LAUNCH_DATE":"2022-05-06","SEMIMAJOR_AXIS":"6917.901","RCS_SIZE":"LARGE","COUNTRY_CODE":"US","SITE":"AFETR","OBJECT_ID":"2022-049AH","INCLINATION":"53.2169","EPHEMERIS_TYPE":"0","PERIOD":"95.438","FILE":"3866923","TLE_LINE2":"2 52482  53.2169 236.5833 0001290  88.0944 272.0196 15.08833207 48864","MEAN_MOTION_DOT":"-0.00000444","REF_FRAME":"TEME","CLASSIFICATION_TYPE":"U","MEAN_ANOMALY":"272.0196","DECAY_DATE":null,"NORAD_CAT_ID":"52482","APOAPSIS":"540.659","ARG_OF_PERICENTER":"88.0944","PERIAPSIS":"538.874","EPOCH":"2023-03-21T10:08:39.239232","RA_OF_ASC_NODE":"236.5833","BSTAR":"-0.00000980260000","TLE_LINE1":"1 52482U 22049AH  23080.42267638 -.00000444  00000-0 -98026-5 0  9993","MEAN_ELEMENT_THEORY":"SGP4","GP_ID":"228596865","REV_AT_EPOCH":"4886","OBJECT_NAME":"STARLINK-3813","TIME_SYSTEM":"UTC"},{"CENTER_NAME":"EARTH","OBJECT_TYPE":"PAYLOAD","ELEMENT_SET_NO":"999","MEAN_MOTION_DDOT":"0.0000000000000","ECCENTRICITY":"0.00014830","OBJECT_ID":"2022-049AJ","INCLINATION":"53.2149","SITE":"AFETR","COUNTRY_CODE":"US","RCS_SIZE":"LARGE","LAUNCH_DATE":"2022-05-06","SEMIMAJOR_AXIS":"6917.858","MEAN_MOTION":"15.08847224","APOAPSIS":"540.749","ARG_OF_PERICENTER":"80.4024","NORAD_CAT_ID":"52483","DECAY_DATE":null,"CLASSIFICATION_TYPE":"U","MEAN_ANOMALY":"279.7136","MEAN_MOTION_DOT":"0.00001414","REF_FRAME":"TEME","TLE_LINE2":"2 52483  53.2149 235.9369 0001483  80.4024 279.7136 15.08847224 48883","FILE":"3866923","PERIOD":"95.437","EPHEMERIS_TYPE":"0","OBJECT_NAME":"STARLINK-3875","TIME_SYSTEM":"UTC","REV_AT_EPOCH":"4888","GP_ID":"228596870","MEAN_ELEMENT_THEORY":"SGP4","TLE_LINE1":"1 52483U 22049AJ  23080.56619077  .00001414  00000-0  10687-3 0  9998","BSTAR":"0.00010687000000","RA_OF_ASC_NODE":"235.9369","PERIAPSIS":"538.697","EPOCH":"2023-03-21T13:35:18.882528"},{"TIME_SYSTEM":"UTC","OBJECT_NAME":"STARLINK-3887","REV_AT_EPOCH":"4857","GP_ID":"228589316","TLE_LINE1":"1 52484U 22049AK  23080.47327258  .00001688  00000-0  12408-3 0  9992","MEAN_ELEMENT_THEORY":"SGP4","EPOCH":"2023-03-21T11:21:30.750912","PERIAPSIS":"538.893","RA_OF_ASC_NODE":"246.3581","BSTAR":"0.00012408000000","NORAD_CAT_ID":"52484","ARG_OF_PERICENTER":"85.3436","APOAPSIS":"540.587","DECAY_DATE":null,"CLASSIFICATION_TYPE":"U","MEAN_ANOMALY":"274.7696","TLE_LINE2":"2 52484  53.2131 246.3581 0001225  85.3436 274.7696 15.08841747 48578","FILE":"3866730","REF_FRAME":"TEME","MEAN_MOTION_DOT":"0.00001688","EPHEMERIS_TYPE":"0","PERIOD":"95.437","SITE":"AFETR","OBJECT_ID":"2022-049AK","INCLINATION":"53.2131","COUNTRY_CODE":"US","MEAN_MOTION":"15.08841747","RCS_SIZE":"LARGE","SEMIMAJOR_AXIS":"6917.875","LAUNCH_DATE":"2022-05-06","OBJECT_TYPE":"PAYLOAD","CENTER_NAME":"EARTH","MEAN_MOTION_DDOT":"0.0000000000000","ELEMENT_SET_NO":"999","ECCENTRICITY":"0.00012250"},{"NORAD_CAT_ID":"52485","APOAPSIS":"540.666","ARG_OF_PERICENTER":"88.1469","CLASSIFICATION_TYPE":"U","MEAN_ANOMALY":"271.9675","DECAY_DATE":null,"FILE":"3866926","TLE_LINE2":"2 52485  53.2157 236.5655 0001331  88.1469 271.9675 15.08840122 48869","REF_FRAME":"TEME","MEAN_MOTION_DOT":"0.00002306","PERIOD":"95.438","EPHEMERIS_TYPE":"0","OBJECT_NAME":"STARLINK-3913","TIME_SYSTEM":"UTC","GP_ID":"228596795","REV_AT_EPOCH":"4886","TLE_LINE1":"1 52485U 22049AL  23080.42635494  .00002306  00000-0  16291-3 0  9994","MEAN_ELEMENT_THEORY":"SGP4","EPOCH":"2023-03-21T10:13:57.066816","PERIAPSIS":"538.824","BSTAR":"0.00016291000000","RA_OF_ASC_NODE":"236.5655","OBJECT_TYPE":"PAYLOAD","CENTER_NAME":"EARTH","MEAN_MOTION_DDOT":"0.0000000000000","ELEMENT_SET_NO":"999","ECCENTRICITY":"0.00013310","SITE":"AFETR","OBJECT_ID":"2022-049AL","INCLINATION":"53.2157","COUNTRY_CODE":"US","MEAN_MOTION":"15.08840122","LAUNCH_DATE":"2022-05-06","SEMIMAJOR_AXIS":"6917.880","RCS_SIZE":"LARGE"},{"MEAN_MOTION_DDOT":"0.0000000000000","ELEMENT_SET_NO":"999","ECCENTRICITY":"0.00015300","OBJECT_TYPE":"PAYLOAD","CENTER_NAME":"EARTH","COUNTRY_CODE":"US","MEAN_MOTION":"15.08842569","LAUNCH_DATE":"2022-05-06","SEMIMAJOR_AXIS":"6917.873","RCS_SIZE":"LARGE","SITE":"AFETR","OBJECT_ID":"2022-049AM","INCLINATION":"53.2135","FILE":"3866923","TLE_LINE2":"2 52486  53.2135 246.3922 0001530  80.1923 279.9242 15.08842569 48731","REF_FRAME":"TEME","MEAN_MOTION_DOT":"0.00001883","PERIOD":"95.437","EPHEMERIS_TYPE":"0","NORAD_CAT_ID":"52486","APOAPSIS":"540.796","ARG_OF_PERICENTER":"80.1923","CLASSIFICATION_TYPE":"U","MEAN_ANOMALY":"279.9242","DECAY_DATE":null,"TLE_LINE1":"1 52486U 22049AM  23080.46591413  .00001883  00000-0  13639-3 0  9993","MEAN_ELEMENT_THEORY":"SGP4","PERIAPSIS":"538.679","EPOCH":"2023-03-21T11:10:54.980832","RA_OF_ASC_NODE":"246.3922","BSTAR":"0.00013639000000","OBJECT_NAME":"STARLINK-3918","TIME_SYSTEM":"UTC","GP_ID":"228596753","REV_AT_EPOCH":"4873"},{"SEMIMAJOR_AXIS":"6917.850","LAUNCH_DATE":"2022-05-06","RCS_SIZE":"LARGE","MEAN_MOTION":"15.08849802","COUNTRY_CODE":"US","INCLINATION":"53.2162","OBJECT_ID":"2022-049AN","SITE":"AFETR","ECCENTRICITY":"0.00011490","ELEMENT_SET_NO":"999","MEAN_MOTION_DDOT":"0.0000000000000","CENTER_NAME":"EARTH","OBJECT_TYPE":"PAYLOAD","RA_OF_ASC_NODE":"236.0279","BSTAR":"0.00041015000000","EPOCH":"2023-03-21T13:40:37.816032","PERIAPSIS":"538.921","MEAN_ELEMENT_THEORY":"SGP4","TLE_LINE1":"1 52487U 22049AN  23080.56988213  .00006247  00000-0  41015-3 0  9991","GP_ID":"228620320","REV_AT_EPOCH":"4996","OBJECT_NAME":"STARLINK-3902","TIME_SYSTEM":"UTC","PERIOD":"95.437","EPHEMERIS_TYPE":"0","REF_FRAME":"TEME","MEAN_MOTION_DOT":"0.00006247","FILE":"3866953","TLE_LINE2":"2 52487  53.2162 236.0279 0001149  88.2098 271.9026 15.08849802 49966","MEAN_ANOMALY":"271.9026","CLASSIFICATION_TYPE":"U","DECAY_DATE":null,"ARG_OF_PERICENTER":"88.2098","APOAPSIS":"540.510","NORAD_CAT_ID":"52487"},{"GP_ID":"228621571","REV_AT_EPOCH":"4861","TIME_SYSTEM":"UTC","OBJECT_NAME":"STARLINK-3892","RA_OF_ASC_NODE":"245.2183","BSTAR":"0.00026561000000","EPOCH":"2023-03-21T17:27:09.308448","PERIAPSIS":"538.806","MEAN_ELEMENT_THEORY":"SGP4","TLE_LINE1":"1 52488U 22049AP  23080.72719107  .00003943  00000-0  26561-3 0  9993","MEAN_ANOMALY":"285.6972","CLASSIFICATION_TYPE":"U","DECAY_DATE":null,"APOAPSIS":"540.623","ARG_OF_PERICENTER":"74.4165","NORAD_CAT_ID":"52488","EPHEMERIS_TYPE":"0","PERIOD":"95.437","REF_FRAME":"TEME","MEAN_MOTION_DOT":"0.00003943","FILE":"3866953","TLE_LINE2":"2 52488  53.2132 245.2183 0001313  74.4165 285.6972 15.08850204 48616","INCLINATION":"53.2132","OBJECT_ID":"2022-049AP","SITE":"AFETR","LAUNCH_DATE":"2022-05-06","SEMIMAJOR_AXIS":"6917.849","RCS_SIZE":"LARGE","MEAN_MOTION":"15.08850204","COUNTRY_CODE":"US","CENTER_NAME":"EARTH","OBJECT_TYPE":"PAYLOAD","ECCENTRICITY":"0.00013130","ELEMENT_SET_NO":"999","MEAN_MOTION_DDOT":"0.0000000000000"},{"NORAD_CAT_ID":"52489","ARG_OF_PERICENTER":"84.9019","APOAPSIS":"540.699","MEAN_ANOMALY":"275.2137","CLASSIFICATION_TYPE":"U","DECAY_DATE":null,"FILE":"3866923","TLE_LINE2":"2 52489  53.2157 244.5825 0001428  84.9019 275.2137 15.08851176 48796","MEAN_MOTION_DOT":"0.00001252","REF_FRAME":"TEME","PERIOD":"95.437","EPHEMERIS_TYPE":"0","OBJECT_NAME":"STARLINK-3923","TIME_SYSTEM":"UTC","GP_ID":"228596866","REV_AT_EPOCH":"4879","TLE_LINE1":"1 52489U 22049AQ  23080.86702584  .00001252  00000-0  96737-4 0  9994","MEAN_ELEMENT_THEORY":"SGP4","PERIAPSIS":"538.723","EPOCH":"2023-03-21T20:48:31.032576","RA_OF_ASC_NODE":"244.5825","BSTAR":"0.00009673700000","OBJECT_TYPE":"PAYLOAD","CENTER_NAME":"EARTH","MEAN_MOTION_DDOT":"0.0000000000000","ELEMENT_SET_NO":"999","ECCENTRICITY":"0.00014280","SITE":"AFETR","INCLINATION":"53.2157","OBJECT_ID":"2022-049AQ","COUNTRY_CODE":"US","MEAN_MOTION":"15.08851176","SEMIMAJOR_AXIS":"6917.846","LAUNCH_DATE":"2022-05-06","RCS_SIZE":"LARGE"},{"GP_ID":"228596748","REV_AT_EPOCH":"4886","TIME_SYSTEM":"UTC","OBJECT_NAME":"STARLINK-3914","BSTAR":"0.00059883000000","RA_OF_ASC_NODE":"236.6355","EPOCH":"2023-03-21T09:52:45.283008","PERIAPSIS":"538.747","MEAN_ELEMENT_THEORY":"SGP4","TLE_LINE1":"1 52490U 22049AR  23080.41163522  .00009258  00000-0  59883-3 0  9994","CLASSIFICATION_TYPE":"U","MEAN_ANOMALY":"278.2892","DECAY_DATE":null,"APOAPSIS":"540.688","ARG_OF_PERICENTER":"81.8259","NORAD_CAT_ID":"52490","EPHEMERIS_TYPE":"0","PERIOD":"95.437","MEAN_MOTION_DOT":"0.00009258","REF_FRAME":"TEME","FILE":"3866923","TLE_LINE2":"2 52490  53.2151 236.6355 0001403  81.8259 278.2892 15.08849223 48866","INCLINATION":"53.2151","OBJECT_ID":"2022-049AR","SITE":"AFETR","LAUNCH_DATE":"2022-05-06","SEMIMAJOR_AXIS":"6917.852","RCS_SIZE":"LARGE","MEAN_MOTION":"15.08849223","COUNTRY_CODE":"US","CENTER_NAME":"EARTH","OBJECT_TYPE":"PAYLOAD","ECCENTRICITY":"0.00014030","ELEMENT_SET_NO":"999","MEAN_MOTION_DDOT":"0.0000000000000"},{"ECCENTRICITY":"0.00012850","ELEMENT_SET_NO":"999","MEAN_MOTION_DDOT":"0.0000000000000","CENTER_NAME":"EARTH","OBJECT_TYPE":"PAYLOAD","RCS_SIZE":"LARGE","LAUNCH_DATE":"2022-05-06","SEMIMAJOR_AXIS":"6917.884","MEAN_MOTION":"15.08838776","COUNTRY_CODE":"US","OBJECT_ID":"2022-049AS","INCLINATION":"53.2148","SITE":"AFETR","PERIOD":"95.438","EPHEMERIS_TYPE":"0","MEAN_MOTION_DOT":"0.00002009","REF_FRAME":"TEME","TLE_LINE2":"2 52491  53.2148 239.2786 0001285  80.4085 279.7052 15.08838776 48618","FILE":"3866730","DECAY_DATE":null,"CLASSIFICATION_TYPE":"U","MEAN_ANOMALY":"279.7052","ARG_OF_PERICENTER":"80.4085","APOAPSIS":"540.638","NORAD_CAT_ID":"52491","BSTAR":"0.00014425000000","RA_OF_ASC_NODE":"239.2786","EPOCH":"2023-03-20T19:44:53.042496","PERIAPSIS":"538.860","MEAN_ELEMENT_THEORY":"SGP4","TLE_LINE1":"1 52491U 22049AS  23079.82283614  .00002009  00000-0  14425-3 0  9993","REV_AT_EPOCH":"4861","GP_ID":"228589067","OBJECT_NAME":"STARLINK-3908","TIME_SYSTEM":"UTC"}];
